NORAD_CAT_ID,OBJECT_NAME,OBJECT_TYPE,EPOCH,MEAN_MOTION,ECCENTRICITY,INCLINATION,RA_OF_ASC_NODE,ARG_OF_PERICENTER,MEAN_ANOMALY,BSTAR,MEAN_MOTION_DOT,MEAN_MOTION_DDOT,TLE_LINE0,TLE_LINE1,TLE_LINE2,SEMIMAJOR_AXIS,PERIOD,APOGEE,PERIGEE,DECAYED
55272.0,STARLINK-5310,PAYLOAD,2024-03-18 05:13:29,14.99137971,0.0002688,70.0001,63.6568,258.8855,101.2003,4.5519e-05,4.61e-06,0.0,0 STARLINK-5310,1 55272U 23010D   24078.21770017  .00000461  00000-0  45519-4 0  9992,2 55272  70.0001  63.6568 0002688 258.8855 101.2003 14.99137971 64402,6947.695,96.055,571.428,567.693,0.0
55272.0,STARLINK-5310,PAYLOAD,2024-03-18 08:25:39,14.99136834,0.0002717,70.0001,63.32,260.3,99.7852,2.8248e-05,2.51e-06,0.0,0 STARLINK-5310,1 55272U 23010D   24078.35114955  .00000251  00000-0  28248-4 0  9997,2 55272  70.0001  63.3200 0002717 260.3000  99.7852 14.99136834 64731,6947.699,96.055,571.452,567.676,0.0
55272.0,STARLINK-5310,PAYLOAD,2024-03-18 22:50:23,14.99141641,0.0002729,70.0002,61.8038,261.7762,98.3088,2.3175e-05,1.89e-06,0.0,0 STARLINK-5310,1 55272U 23010D   24078.95166264  .00000189  00000-0  23175-4 0  9997,2 55272  70.0002  61.8038 0002729 261.7762  98.3088 14.99141641 64825,6947.684,96.055,571.445,567.653,0.0
55272.0,STARLINK-5310,PAYLOAD,2024-03-19 08:26:53,14.99144417,0.0002709,70.0004,60.7931,258.4367,101.6489,5.4023e-05,5.65e-06,0.0,0 STARLINK-5310,1 55272U 23010D   24079.35200346  .00000565  00000-0  54023-4 0  9996,2 55272  70.0004  60.7931 0002709 258.4367 101.6489 14.99144417 64578,6947.676,96.055,571.423,567.658,0.0
55272.0,STARLINK-5310,PAYLOAD,2024-03-20 08:28:07,14.99142222,0.0002772,70.0005,58.2668,259.3446,100.7402,8.5173e-05,9.44e-06,0.0,0 STARLINK-5310,1 55272U 23010D   24080.35286268  .00000944  00000-0  85173-4 0  9996,2 55272  70.0005  58.2668 0002772 259.3446 100.7402 14.99142222 64720,6947.682,96.055,571.473,567.621,0.0
55272.0,STARLINK-5310,PAYLOAD,2024-03-20 22:52:52,14.9914074,0.00027,70.0007,56.7512,257.0205,103.0653,2.6753e-05,2.32e-06,0.0,0 STARLINK-5310,1 55272U 23010D   24080.95338094  .00000232  00000-0  26753-4 0  9996,2 55272  70.0007  56.7512 0002700 257.0205 103.0653 14.99140740 65124,6947.687,96.055,571.428,567.676,0.0
55272.0,STARLINK-5310,PAYLOAD,2024-03-21 05:17:12,14.99137556,0.0002743,70.0007,56.0769,267.4831,92.6015,7.3675e-06,-4e-08,0.0,0 STARLINK-5310,1 55272U 23010D   24081.22027994 -.00000004  00000-0  73675-5 0  9995,2 55272  70.0007  56.0769 0002743 267.4831  92.6015 14.99137556 64853,6947.697,96.055,571.467,567.656,0.0
55272.0,STARLINK-5310,PAYLOAD,2024-03-21 08:29:22,14.99138028,0.0002712,70.0007,55.74,267.2749,92.81,1.6258e-05,1.04e-06,0.0,0 STARLINK-5310,1 55272U 23010D   24081.35372740  .00000104  00000-0  16258-4 0  9994,2 55272  70.0007  55.7400 0002712 267.2749  92.8100 14.99138028 65182,6947.695,96.055,571.444,567.676,0.0
55272.0,STARLINK-5310,PAYLOAD,2024-03-21 22:54:06,14.99142332,0.0002879,70.0001,54.2223,274.1048,85.9782,7.2159e-05,7.86e-06,0.0,0 STARLINK-5310,1 55272U 23010D   24081.95423856  .00000786  00000-0  72159-4 0  9993,2 55272  70.0001  54.2223 0002879 274.1048  85.9782 14.99142332 65278,6947.682,96.055,571.547,567.547,0.0
55272.0,STARLINK-5310,PAYLOAD,2024-03-22 05:18:25,14.99148066,0.0002842,70.0003,53.5489,275.9004,84.1832,0.00012384,1.416e-05,0.0,0 STARLINK-5310,1 55272U 23010D   24082.22112940  .00001416  00000-0  12384-3 0  9997,2 55272  70.0003  53.5489 0002842 275.9004  84.1832 14.99148066 65005,6947.664,96.055,571.504,567.555,0.0
55272.0,STARLINK-5310,PAYLOAD,2024-03-22 06:54:30,14.99150518,0.000279,70.0003,53.3807,272.2586,87.8254,0.00014148,1.631e-05,0.0,0 STARLINK-5310,1 55272U 23010D   24082.28785081  .00001631  00000-0  14148-3 0  9994,2 55272  70.0003  53.3807 0002790 272.2586  87.8254 14.99150518 65322,6947.657,96.054,571.46,567.583,0.0
55272.0,STARLINK-5310,PAYLOAD,2024-03-22 22:55:20,14.99133033,0.0002684,70.0006,51.6958,274.5663,85.5189,6.3079e-05,6.75e-06,0.0,0 STARLINK-5310,1 55272U 23010D   24082.95510355  .00000675  00000-0  63079-4 0  9993,2 55272  70.0006  51.6958 0002684 274.5663  85.5189 14.99133033 65422,6947.711,96.056,571.44,567.711,0.0
55272.0,STARLINK-5310,PAYLOAD,2024-03-23 05:19:41,14.99131774,0.0003166,70.0,51.0224,271.2834,88.7963,2.5879e-05,2.22e-06,0.0,0 STARLINK-5310,1 55272U 23010D   24083.22200259  .00000222  00000-0  25879-4 0  9997,2 55272  70.0000  51.0224 0003166 271.2834  88.7963 14.99131774 65151,6947.715,96.056,571.779,567.38,0.0
55272.0,STARLINK-5310,PAYLOAD,2024-03-23 08:31:50,14.99132393,0.0002869,70.0007,50.6856,260.9297,99.1538,5.5513e-05,5.83e-06,0.0,0 STARLINK-5310,1 55272U 23010D   24083.35544972  .00000583  00000-0  55513-4 0  9992,2 55272  70.0007  50.6856 0002869 260.9297  99.1538 14.99132393 65489,6947.713,96.056,571.571,567.584,0.0
55272.0,STARLINK-5310,PAYLOAD,2024-03-24 05:20:54,14.99150739,0.0002462,70.0028,48.4997,226.2184,133.8772,0.00011093,1.259e-05,0.0,0 STARLINK-5310,1 55272U 23010D   24084.22284743  .00001259  00000-0  11093-3 0  9991,2 55272  70.0028  48.4997 0002462 226.2184 133.8772 14.99150739 65303,6947.656,96.054,571.231,567.81,0.0
55272.0,STARLINK-5310,PAYLOAD,2024-03-24 06:56:58,14.99152295,0.0002388,70.0028,48.3311,232.2492,127.8451,0.00015001,1.735e-05,0.0,0 STARLINK-5310,1 55272U 23010D   24084.28956960  .00001735  00000-0  15001-3 0  9996,2 55272  70.0028  48.3311 0002388 232.2492 127.8451 14.99152295 65629,6947.651,96.054,571.175,567.857,0.0
55272.0,STARLINK-5310,PAYLOAD,2024-03-24 21:21:44,14.99135616,0.0002515,70.002,46.8139,259.2678,100.8199,0.00018791,2.196e-05,0.0,0 STARLINK-5310,1 55272U 23010D   24084.89009915  .00002196  00000-0  18791-3 0  9993,2 55272  70.0020  46.8139 0002515 259.2678 100.8199 14.99135616 65403,6947.703,96.055,571.315,567.82,0.0
55272.0,STARLINK-5310,PAYLOAD,2024-03-24 22:57:49,14.99135075,0.0002682,70.0016,46.6448,256.9289,103.1571,0.00016105,1.869e-05,0.0,0 STARLINK-5310,1 55272U 23010D   24084.95682483  .00001869  00000-0  16105-3 0  9990,2 55272  70.0016  46.6448 0002682 256.9289 103.1571 14.99135075 65720,6947.704,96.055,571.433,567.706,0.0
55272.0,STARLINK-5310,PAYLOAD,2024-03-25 21:22:59,14.99129171,0.0002239,70.0024,44.2826,230.7354,129.3607,-3.4548e-05,-5.14e-06,0.0,0 STARLINK-5310,1 55272U 23010D   24085.89096962 -.00000514  00000-0 -34548-4 0  9995,2 55272  70.0024  44.2826 0002239 230.7354 129.3607 14.99129171 65555,6947.723,96.056,571.143,568.032,0.0
55272.0,STARLINK-5310,PAYLOAD,2024-03-25 22:59:04,14.99134636,0.0002307,70.0014,44.1173,266.1347,93.9548,-0.0001382,-1.777e-05,0.0,0 STARLINK-5310,1 55272U 23010D   24085.95769486 -.00001777  00000-0 -13820-3 0  9991,2 55272  70.0014  44.1173 0002307 266.1347  93.9548 14.99134636 65876,6947.706,96.055,571.174,567.968,0.0
55272.0,STARLINK-5310,PAYLOAD,2024-03-26 06:59:29,14.99129241,0.0002259,70.002,43.2746,258.8406,101.25,-0.00011846,-1.536e-05,0.0,0 STARLINK-5310,1 55272U 23010D   24086.29131922 -.00001536  00000-0 -11846-3 0  9996,2 55272  70.0020  43.2746 0002259 258.8406 101.2500 14.99129241 65922,6947.722,96.056,571.157,568.018,0.0
55272.0,STARLINK-5310,PAYLOAD,2024-03-26 21:24:13,14.991327,0.0003235,70.0,41.7569,266.7458,93.3331,0.00015214,1.76e-05,0.0,0 STARLINK-5310,1 55272U 23010D   24086.89182699  .00001760  00000-0  15214-3 0  9999,2 55272  70.0000  41.7569 0003235 266.7458  93.3331 14.99132700 65709,6947.712,96.056,571.824,567.329,0.0
55272.0,STARLINK-5310,PAYLOAD,2024-03-26 23:00:18,14.99134909,0.0003142,70.0004,41.589,268.2263,91.8537,0.00017483,2.037e-05,0.0,0 STARLINK-5310,1 55272U 23010D   24086.95854975  .00002037  00000-0  17483-3 0  9997,2 55272  70.0004  41.5890 0003142 268.2263  91.8537 14.99134909 66026,6947.705,96.055,571.753,567.387,0.0
55272.0,STARLINK-5310,PAYLOAD,2024-03-27 05:24:37,14.99145036,0.0002642,70.0011,40.9161,271.1949,88.8908,0.0003187,3.792e-05,0.0,0 STARLINK-5310,1 55272U 23010D   24087.22543821  .00003792  00000-0  31870-3 0  9998,2 55272  70.0011  40.9161 0002642 271.1949  88.8908 14.99145036 65756,6947.674,96.055,571.374,567.703,0.0
55272.0,STARLINK-5310,PAYLOAD,2024-03-27 07:00:42,14.99147169,0.0002605,70.0013,40.7476,270.3203,89.7657,0.00034577,4.123e-05,0.0,0 STARLINK-5310,1 55272U 23010D   24087.29216055  .00004123  00000-0  34577-3 0  9997,2 55272  70.0013  40.7476 0002605 270.3203  89.7657 14.99147169 66074,6947.667,96.055,571.342,567.722,0.0
55272.0,STARLINK-5310,PAYLOAD,2024-03-27 21:25:27,14.9913969,0.0002349,70.0027,39.2336,275.8257,84.2634,0.00025841,3.056e-05,0.0,0 STARLINK-5310,1 55272U 23010D   24087.89268212  .00003056  00000-0  25841-3 0  9993,2 55272  70.0027  39.2336 0002349 275.8257  84.2634 14.99139690 65851,6947.69,96.055,571.187,567.923,0.0
55272.0,STARLINK-5310,PAYLOAD,2024-03-28 13:26:17,14.99137631,0.0001935,70.0043,37.5459,292.4645,67.6309,0.00014837,1.715e-05,0.0,0 STARLINK-5310,1 55272U 23010D   24088.55992590  .00001715  00000-0  14837-3 0  9993,2 55272  70.0043  37.5459 0001935 292.4645  67.6309 14.99137631 66265,6947.696,96.055,570.906,568.217,0.0
55272.0,STARLINK-5310,PAYLOAD,2024-03-28 21:26:41,14.99147573,0.0002457,70.0019,36.7057,272.6486,87.4392,-5.1413e-05,-7.2e-06,0.0,0 STARLINK-5310,1 55272U 23010D   24088.89354129 -.00000720  00000-0 -51413-4 0  9999,2 55272  70.0019  36.7057 0002457 272.6486  87.4392 14.99147573 66006,6947.666,96.055,571.238,567.824,0.0
55272.0,STARLINK-5310,PAYLOAD,2024-03-28 23:02:46,14.99146663,0.0002487,70.0018,36.5373,272.3291,87.7584,-5.9532e-05,-8.19e-06,0.0,0 STARLINK-5310,1 55272U 23010D   24088.96026560 -.00000819  00000-0 -59532-4 0  9991,2 55272  70.0018  36.5373 0002487 272.3291  87.7584 14.99146663 66328,6947.669,96.055,571.261,567.806,0.0
55272.0,STARLINK-5310,PAYLOAD,2024-03-29 13:27:30,14.99185452,0.0001857,70.0048,35.0208,288.2421,71.8536,-0.0009783,-0.00012007,0.0,0 STARLINK-5310,1 55272U 23010D   24089.56077264 -.00012007  00000-0 -97830-3 0  9999,2 55272  70.0048  35.0208 0001857 288.2421  71.8536 14.99185452 66413,6947.549,96.052,570.704,568.124,0.0
